[Satellite]
VERSION=1.1
NAME=COSMOS 2465 (737)
NICKNAME=COSMOS 2465 (737)
TLE1=1 37138U 10041B   17185.91573753 -.00000071  00000-0  00000-0 0  9999
TLE2=2 37138  64.6671 303.3846 0036417 170.1711  10.7566  2.13097437 53223
